CCSDS_OMM_VERS = 2.0
CREATION_DATE  = 
ORIGINATOR     = 

OBJECT_NAME    = STARLINK-36495
OBJECT_ID      = 2026-002G
CENTER_NAME    = EARTH
REF_FRAME      = TEME
TIME_SYSTEM    = UTC
MEAN_ELEMENT_THEORY = SGP/SGP4

EPOCH          = 2026-01-13T14:00:01.000224
MEAN_MOTION    = 15.92679726
ECCENTRICITY   = .0001858
INCLINATION    = 42.9986
RA_OF_ASC_NODE = 284.6175
ARG_OF_PERICENTER = 265.4307
MEAN_ANOMALY   = 262.5168

EPHEMERIS_TYPE = 0
CLASSIFICATION_TYPE = U
NORAD_CAT_ID   = 67311
ELEMENT_SET_NO = 999
REV_AT_EPOCH   = 271
BSTAR          = -.38306541E-2
MEAN_MOTION_DOT = -.1362577E-1
MEAN_MOTION_DDOT = .53556385E-3

CCSDS_OMM_VERS = 2.0
CREATION_DATE  = 
ORIGINATOR     = 

OBJECT_NAME    = STARLINK-36485
OBJECT_ID      = 2026-002H
CENTER_NAME    = EARTH
REF_FRAME      = TEME
TIME_SYSTEM    = UTC
MEAN_ELEMENT_THEORY = SGP/SGP4

EPOCH          = 2026-01-13T14:00:01.000224
MEAN_MOTION    = 15.92729861
ECCENTRICITY   = .00018482
INCLINATION    = 42.9986
RA_OF_ASC_NODE = 284.6107
ARG_OF_PERICENTER = 263.2027
MEAN_ANOMALY   = 267.4040

EPHEMERIS_TYPE = 0
CLASSIFICATION_TYPE = U
NORAD_CAT_ID   = 67312
ELEMENT_SET_NO = 999
REV_AT_EPOCH   = 255
BSTAR          = -.38339635E-2
MEAN_MOTION_DOT = -.1367291E-1
MEAN_MOTION_DDOT = .53922636E-3

CCSDS_OMM_VERS = 2.0
CREATION_DATE  = 
ORIGINATOR     = 

OBJECT_NAME    = STARLINK-36445
OBJECT_ID      = 2026-002J
CENTER_NAME    = EARTH
REF_FRAME      = TEME
TIME_SYSTEM    = UTC
MEAN_ELEMENT_THEORY = SGP/SGP4

EPOCH          = 2026-01-13T14:00:01.000224
MEAN_MOTION    = 15.92769491
ECCENTRICITY   = .00018373
INCLINATION    = 42.9982
RA_OF_ASC_NODE = 284.6067
ARG_OF_PERICENTER = 264.5792
MEAN_ANOMALY   = 267.5225

EPHEMERIS_TYPE = 0
CLASSIFICATION_TYPE = U
NORAD_CAT_ID   = 67313
ELEMENT_SET_NO = 999
REV_AT_EPOCH   = 271
BSTAR          = -.38365373E-2
MEAN_MOTION_DOT = -.1371014E-1
MEAN_MOTION_DDOT = .54212804E-3

CCSDS_OMM_VERS = 2.0
CREATION_DATE  = 
ORIGINATOR     = 

OBJECT_NAME    = STARLINK-36476
OBJECT_ID      = 2026-002K
CENTER_NAME    = EARTH
REF_FRAME      = TEME
TIME_SYSTEM    = UTC
MEAN_ELEMENT_THEORY = SGP/SGP4

EPOCH          = 2026-01-13T14:00:01.000224
MEAN_MOTION    = 15.92825283
ECCENTRICITY   = .00018626
INCLINATION    = 42.9986
RA_OF_ASC_NODE = 284.6005
ARG_OF_PERICENTER = 265.3339
MEAN_ANOMALY   = 269.3901

EPHEMERIS_TYPE = 0
CLASSIFICATION_TYPE = U
NORAD_CAT_ID   = 67314
ELEMENT_SET_NO = 999
REV_AT_EPOCH   = 255
BSTAR          = -.38623669E-2
MEAN_MOTION_DOT = -.138415E-1
MEAN_MOTION_DDOT = .55198302E-3

CCSDS_OMM_VERS = 2.0
CREATION_DATE  = 
ORIGINATOR     = 

OBJECT_NAME    = STARLINK-36463
OBJECT_ID      = 2026-002L
CENTER_NAME    = EARTH
REF_FRAME      = TEME
TIME_SYSTEM    = UTC
MEAN_ELEMENT_THEORY = SGP/SGP4

EPOCH          = 2026-01-13T14:00:01.000224
MEAN_MOTION    = 15.92917943
ECCENTRICITY   = .00018972
INCLINATION    = 42.9985
RA_OF_ASC_NODE = 284.5893
ARG_OF_PERICENTER = 262.8292
MEAN_ANOMALY   = 276.0549

EPHEMERIS_TYPE = 0
CLASSIFICATION_TYPE = U
NORAD_CAT_ID   = 67315
ELEMENT_SET_NO = 999
REV_AT_EPOCH   = 261
BSTAR          = -.38739825E-2
MEAN_MOTION_DOT = -.1394977E-1
MEAN_MOTION_DDOT = .5604277E-3

CCSDS_OMM_VERS = 2.0
CREATION_DATE  = 
ORIGINATOR     = 

OBJECT_NAME    = STARLINK-36461
OBJECT_ID      = 2026-002M
CENTER_NAME    = EARTH
REF_FRAME      = TEME
TIME_SYSTEM    = UTC
MEAN_ELEMENT_THEORY = SGP/SGP4

EPOCH          = 2026-01-13T14:00:01.000224
MEAN_MOTION    = 15.92976044
ECCENTRICITY   = .00018587
INCLINATION    = 42.9984
RA_OF_ASC_NODE = 284.5823
ARG_OF_PERICENTER = 265.5125
MEAN_ANOMALY   = 276.2081

EPHEMERIS_TYPE = 0
CLASSIFICATION_TYPE = U
NORAD_CAT_ID   = 67316
ELEMENT_SET_NO = 999
REV_AT_EPOCH   = 271
BSTAR          = -.38927991E-2
MEAN_MOTION_DOT = -.1405907E-1
MEAN_MOTION_DDOT = .56882463E-3

CCSDS_OMM_VERS = 2.0
CREATION_DATE  = 
ORIGINATOR     = 

OBJECT_NAME    = STARLINK-36450
OBJECT_ID      = 2026-002N
CENTER_NAME    = EARTH
REF_FRAME      = TEME
TIME_SYSTEM    = UTC
MEAN_ELEMENT_THEORY = SGP/SGP4

EPOCH          = 2026-01-13T14:00:01.000224
MEAN_MOTION    = 15.93022895
ECCENTRICITY   = .00018818
INCLINATION    = 42.9985
RA_OF_ASC_NODE = 284.5770
ARG_OF_PERICENTER = 268.6528
MEAN_ANOMALY   = 275.1937

EPHEMERIS_TYPE = 0
CLASSIFICATION_TYPE = U
NORAD_CAT_ID   = 67317
ELEMENT_SET_NO = 999
REV_AT_EPOCH   = 271
BSTAR          = -.39236734E-2
MEAN_MOTION_DOT = -.1420392E-1
MEAN_MOTION_DDOT = .57987995E-3

CCSDS_OMM_VERS = 2.0
CREATION_DATE  = 
ORIGINATOR     = 

OBJECT_NAME    = STARLINK-36498
OBJECT_ID      = 2026-002P
CENTER_NAME    = EARTH
REF_FRAME      = TEME
TIME_SYSTEM    = UTC
MEAN_ELEMENT_THEORY = SGP/SGP4

EPOCH          = 2026-01-13T14:00:01.000224
MEAN_MOTION    = 15.93122542
ECCENTRICITY   = .00019513
INCLINATION    = 42.9983
RA_OF_ASC_NODE = 284.5653
ARG_OF_PERICENTER = 264.2380
MEAN_ANOMALY   = 284.1286

EPHEMERIS_TYPE = 0
CLASSIFICATION_TYPE = U
NORAD_CAT_ID   = 67318
ELEMENT_SET_NO = 999
REV_AT_EPOCH   = 261
BSTAR          = -.39073458E-2
MEAN_MOTION_DOT = -.1421931E-1
MEAN_MOTION_DDOT = .58159964E-3

CCSDS_OMM_VERS = 2.0
CREATION_DATE  = 
ORIGINATOR     = 

OBJECT_NAME    = STARLINK-36470
OBJECT_ID      = 2026-002Q
CENTER_NAME    = EARTH
REF_FRAME      = TEME
TIME_SYSTEM    = UTC
MEAN_ELEMENT_THEORY = SGP/SGP4

EPOCH          = 2026-01-13T14:00:01.000224
MEAN_MOTION    = 15.93070710
ECCENTRICITY   = .00019059
INCLINATION    = 42.9985
RA_OF_ASC_NODE = 284.5711
ARG_OF_PERICENTER = 263.6019
MEAN_ANOMALY   = 282.5048

EPHEMERIS_TYPE = 0
CLASSIFICATION_TYPE = U
NORAD_CAT_ID   = 67319
ELEMENT_SET_NO = 999
REV_AT_EPOCH   = 261
BSTAR          = -.3894563E-2
MEAN_MOTION_DOT = -.1413498E-1
MEAN_MOTION_DDOT = .57500011E-3

CCSDS_OMM_VERS = 2.0
CREATION_DATE  = 
ORIGINATOR     = 

OBJECT_NAME    = STARLINK-36500
OBJECT_ID      = 2026-002R
CENTER_NAME    = EARTH
REF_FRAME      = TEME
TIME_SYSTEM    = UTC
MEAN_ELEMENT_THEORY = SGP/SGP4

EPOCH          = 2026-01-13T14:00:01.000224
MEAN_MOTION    = 15.93171769
ECCENTRICITY   = .00018143
INCLINATION    = 42.9986
RA_OF_ASC_NODE = 284.5604
ARG_OF_PERICENTER = 262.4625
MEAN_ANOMALY   = 288.0959

EPHEMERIS_TYPE = 0
CLASSIFICATION_TYPE = U
NORAD_CAT_ID   = 67320
ELEMENT_SET_NO = 999
REV_AT_EPOCH   = 261
BSTAR          = -.38976403E-2
MEAN_MOTION_DOT = -.1422049E-1
MEAN_MOTION_DDOT = .58196941E-3

CCSDS_OMM_VERS = 2.0
CREATION_DATE  = 
ORIGINATOR     = 

OBJECT_NAME    = STARLINK-36462
OBJECT_ID      = 2026-002S
CENTER_NAME    = EARTH
REF_FRAME      = TEME
TIME_SYSTEM    = UTC
MEAN_ELEMENT_THEORY = SGP/SGP4

EPOCH          = 2026-01-13T14:00:01.000224
MEAN_MOTION    = 15.93277321
ECCENTRICITY   = .00018201
INCLINATION    = 42.9987
RA_OF_ASC_NODE = 284.5485
ARG_OF_PERICENTER = 260.9838
MEAN_ANOMALY   = 294.2347

EPHEMERIS_TYPE = 0
CLASSIFICATION_TYPE = U
NORAD_CAT_ID   = 67321
ELEMENT_SET_NO = 999
REV_AT_EPOCH   = 255
BSTAR          = -.3914567E-2
MEAN_MOTION_DOT = -.1436041E-1
MEAN_MOTION_DDOT = .59312688E-3

CCSDS_OMM_VERS = 2.0
CREATION_DATE  = 
ORIGINATOR     = 

OBJECT_NAME    = STARLINK-36434
OBJECT_ID      = 2026-002T
CENTER_NAME    = EARTH
REF_FRAME      = TEME
TIME_SYSTEM    = UTC
MEAN_ELEMENT_THEORY = SGP/SGP4

EPOCH          = 2026-01-13T14:00:01.000224
MEAN_MOTION    = 15.93235810
ECCENTRICITY   = .00017908
INCLINATION    = 42.9987
RA_OF_ASC_NODE = 284.5525
ARG_OF_PERICENTER = 264.6047
MEAN_ANOMALY   = 288.9712

EPHEMERIS_TYPE = 0
CLASSIFICATION_TYPE = U
NORAD_CAT_ID   = 67322
ELEMENT_SET_NO = 999
REV_AT_EPOCH   = 255
BSTAR          = -.39348972E-2
MEAN_MOTION_DOT = -.1440279E-1
MEAN_MOTION_DDOT = .59609797E-3

