STARLINK-36495          
1 67311U 26002G   26013.58334491 -.01362577  53556-3 -38307-2 0  9990
2 67311  42.9986 284.6175 0001858 265.4307 262.5168 15.92679726  2714
STARLINK-36485          
1 67312U 26002H   26013.58334491 -.01367291  53923-3 -38340-2 0  9994
2 67312  42.9986 284.6107 0001848 263.2027 267.4040 15.92729861  2555
STARLINK-36445          
1 67313U 26002J   26013.58334491 -.01371014  54213-3 -38365-2 0  9993
2 67313  42.9982 284.6067 0001837 264.5792 267.5225 15.92769491  2715
STARLINK-36476          
1 67314U 26002K   26013.58334491 -.01384150  55198-3 -38624-2 0  9990
2 67314  42.9986 284.6005 0001862 265.3339 269.3901 15.92825283  2551
STARLINK-36463          
1 67315U 26002L   26013.58334491 -.01394977  56043-3 -38740-2 0  9998
2 67315  42.9985 284.5893 0001897 262.8292 276.0549 15.92917943  2618
STARLINK-36461          
1 67316U 26002M   26013.58334491 -.01405907  56882-3 -38928-2 0  9994
2 67316  42.9984 284.5823 0001858 265.5125 276.2081 15.92976044  2714
STARLINK-36450          
1 67317U 26002N   26013.58334491 -.01420392  57988-3 -39237-2 0  9992
2 67317  42.9985 284.5770 0001881 268.6528 275.1937 15.93022895  2719
STARLINK-36498          
1 67318U 26002P   26013.58334491 -.01421931  58160-3 -39073-2 0  9994
2 67318  42.9983 284.5653 0001951 264.2380 284.1286 15.93122542  2610
STARLINK-36470          
1 67319U 26002Q   26013.58334491 -.01413498  57500-3 -38946-2 0  9999
2 67319  42.9985 284.5711 0001905 263.6019 282.5048 15.93070710  2616
STARLINK-36500          
1 67320U 26002R   26013.58334491 -.01422049  58197-3 -38976-2 0  9999
2 67320  42.9986 284.5604 0001814 262.4625 288.0959 15.93171769  2617
STARLINK-36462          
1 67321U 26002S   26013.58334491 -.01436041  59313-3 -39146-2 0  9998
2 67321  42.9987 284.5485 0001820 260.9838 294.2347 15.93277321  2556
STARLINK-36434          
1 67322U 26002T   26013.58334491 -.01440279  59610-3 -39349-2 0  9992
2 67322  42.9987 284.5525 0001790 264.6047 288.9712 15.93235810  2554
